[{"OBJECT_NAME":"NUSAT-48 (HENRIETTA LEAVITT)","OBJECT_ID":"2024-149AG","EPOCH":"2026-03-09T19:19:17.269536","MEAN_MOTION":15.29812597,"ECCENTRICITY":0.00027538,"INCLINATION":97.3923,"RA_OF_ASC_NODE":150.8264,"ARG_OF_PERICENTER":263.3026,"MEAN_ANOMALY":96.7901,"EPHEMERIS_TYPE":0,"CLASSIFICATION_TYPE":"U","NORAD_CAT_ID":60498,"ELEMENT_SET_NO":999,"REV_AT_EPOCH":8694,"BSTAR":0.00045211745,"MEAN_MOTION_DOT":0.00012988,"MEAN_MOTION_DDOT":0},{"OBJECT_NAME":"STARLINK-36210","OBJECT_ID":"2025-303M","EPOCH":"2026-03-09T00:50:21.020064","MEAN_MOTION":15.27594454,"ECCENTRICITY":0.00022379,"INCLINATION":43.0036,"RA_OF_ASC_NODE":314.5291,"ARG_OF_PERICENTER":258.7936,"MEAN_ANOMALY":101.2664,"EPHEMERIS_TYPE":0,"CLASSIFICATION_TYPE":"U","NORAD_CAT_ID":67174,"ELEMENT_SET_NO":999,"REV_AT_EPOCH":1263,"BSTAR":0.0013034625,"MEAN_MOTION_DOT":0.00035797,"MEAN_MOTION_DDOT":0}]
